*******************************************************************************
JPL/HORIZONS               259 Aletheia (A886 MA)          2023-Sep-04 11:05:18
Rec #:     259 (+COV) Soln.date: 2023-Aug-22_23:28:47   # obs: 3791 (1898-2023)
 
IAU76/J2000 helio. ecliptic osc. elements (au, days, deg., period=Julian yrs):
 
  EPOCH=  2456612.5 ! 2013-Nov-16.00 (TDB)         Residual RMS= .31589
   EC= .1272563187616043   QR= 2.735018160485558   TP= 2456799.528691744
   OM= 86.8695655018838    W=  168.1606691460427   IN= 10.8151172784712
   A= 3.133816055367658    MA= 326.7721640178052   ADIST= 3.532613950249758
   PER= 5.54777            N= .177661704           ANGMOM= .030204586
   DAN= 3.52169            DDN= 2.7416             L= 255.2347444
   B= 2.2063074            MOID= 1.72248006        TP= 2014-May-22.0286917440
 
Asteroid physical parameters (km, seconds, rotational period in hours):
   GM= n.a.                RAD= 87.159             ROTPER= 8.143
   H= 7.88                 G= .150                 B-V= .698
                           ALBEDO= .043            STYP= X

ASTEROID comments: 
1: soln ref.= JPL#132, OCC=0
2: source=ORB
*******************************************************************************


*******************************************************************************
Ephemeris / API_USER Mon Sep  4 11:05:18 2023 Pasadena, USA      / Horizons
*******************************************************************************
Target body name: 259 Aletheia (A886 MA)          {source: JPL#132}
Center body name: Solar System Barycenter (0)     {source: DE441}
Center-site name: BODY CENTER
*******************************************************************************
Start time      : A.D. 2023-Aug-12 00:00:00.0000 TDB
Stop  time      : A.D. 2023-Aug-13 00:00:00.0000 TDB
Step-size       : 2880 minutes
*******************************************************************************
Center geodetic : 0.0, 0.0, 0.0                   {E-lon(deg),Lat(deg),Alt(km)}
Center cylindric: 0.0, 0.0, 0.0                   {E-lon(deg),Dxy(km),Dz(km)}
Center radii    : (undefined)
Small perturbers: Yes                             {source: SB441-N16}
Output units    : KM-S
Calendar mode   : Mixed Julian/Gregorian
Output type     : GEOMETRIC cartesian states
Output format   : 2 (position and velocity)
Reference frame : Ecliptic of J2000.0
*******************************************************************************
Initial IAU76/J2000 heliocentric ecliptic osculating elements (au, days, deg.):
  EPOCH=  2456612.5 ! 2013-Nov-16.00 (TDB)         Residual RMS= .31589        
   EC= .1272563187616043   QR= 2.735018160485558   TP= 2456799.528691744       
   OM= 86.8695655018838    W=  168.1606691460427   IN= 10.8151172784712        
  Equivalent ICRF heliocentric cartesian coordinates (au, au/d):
   X=-2.332754296778529E+00  Y=-1.567086610565027E+00  Z=-2.117309937373207E-01
  VX= 6.364403830209284E-03 VY=-7.340357636683222E-03 VZ=-4.603017497816064E-03
Asteroid physical parameters (km, seconds, rotational period in hours):        
   GM= n.a.                RAD= 87.159             ROTPER= 8.143               
   H= 7.88                 G= .150                 B-V= .698                   
                           ALBEDO= .043            STYP= X                     
*******************************************************************************
JDTDB
   X     Y     Z
   VX    VY    VZ
*******************************************************************************
$$SOE
2460168.500000000 = A.D. 2023-Aug-12 00:00:00.0000 TDB 
 X =-2.617232090051798E+08 Y = 4.277744230901348E+08 Z = 5.425723212268254E+07
 VX=-1.210224745407278E+01 VY=-9.598281926690971E+00 VZ= 2.205599834818657E+00
$$EOE
*******************************************************************************
 
TIME

  Barycentric Dynamical Time ("TDB" or T_eph) output was requested. This
continuous coordinate time is equivalent to the relativistic proper time
of a clock at rest in a reference frame co-moving with the solar system
barycenter but outside the system's gravity well. It is the independent
variable in the solar system relativistic equations of motion.

  TDB runs at a uniform rate of one SI second per second and is independent
of irregularities in Earth's rotation.
 
CALENDAR SYSTEM

  Mixed calendar mode was active such that calendar dates after AD 1582-Oct-15
(if any) are in the modern Gregorian system. Dates prior to 1582-Oct-5 (if any)
are in the Julian calendar system, which is automatically extended for dates
prior to its adoption on 45-Jan-1 BC.  The Julian calendar is useful for
matching historical dates. The Gregorian calendar more accurately corresponds
to the Earth's orbital motion and seasons. A "Gregorian-only" calendar mode is
available if such physical events are the primary interest.

REFERENCE FRAME AND COORDINATES

  Ecliptic at the standard reference epoch

    Reference epoch: J2000.0
    X-Y plane: adopted Earth orbital plane at the reference epoch
               Note: IAU76 obliquity of 84381.448 arcseconds wrt ICRF X-Y plane
    X-axis   : ICRF
    Z-axis   : perpendicular to the X-Y plane in the directional (+ or -) sense
               of Earth's north pole at the reference epoch.

  Symbol meaning:

    JDTDB    Julian Day Number, Barycentric Dynamical Time
      X      X-component of position vector (km)
      Y      Y-component of position vector (km)
      Z      Z-component of position vector (km)
      VX     X-component of velocity vector (km/sec)                           
      VY     Y-component of velocity vector (km/sec)                           
      VZ     Z-component of velocity vector (km/sec)                           

ABERRATIONS AND CORRECTIONS

 Geometric state vectors have NO corrections or aberrations applied.

Computations by ...

    Solar System Dynamics Group, Horizons On-Line Ephemeris System
    4800 Oak Grove Drive, Jet Propulsion Laboratory
    Pasadena, CA  91109   USA

    General site: https://ssd.jpl.nasa.gov/
    Mailing list: https://ssd.jpl.nasa.gov/email_list.html
    System news : https://ssd.jpl.nasa.gov/horizons/news.html
    User Guide  : https://ssd.jpl.nasa.gov/horizons/manual.html
    Connect     : browser        https://ssd.jpl.nasa.gov/horizons/app.html#/x
                  API            https://ssd-api.jpl.nasa.gov/doc/horizons.html
                  command-line   telnet ssd.jpl.nasa.gov 6775
                  e-mail/batch   https://ssd.jpl.nasa.gov/ftp/ssd/hrzn_batch.txt
                  scripts        https://ssd.jpl.nasa.gov/ftp/ssd/SCRIPTS
    Author      : Jon.D.Giorgini@jpl.nasa.gov
*******************************************************************************
